QPS-SAR-8 (AMATERU-IV)  
1 60542U 24149CC  26182.69552413  .00007017  00000+0  50819-3 0  9991
2 60542  97.6669 261.7234 0004213  75.4133 284.7560 15.04282398102456
ARCTIC WEATHER SATELLITE
1 60543U 24149CD  26182.92994321  .00001097  00000+0  11992-3 0  9997
2 60543  97.6797 252.9738 0003564  76.1312 284.0302 14.89807813101492
CAPELLA-15 (ACADIA-5)   
1 60544U 24149CE  26182.93891189  .00004988  00000+0  49231-3 0  9996
2 60544  97.6768 255.4737 0003816  32.7851 327.3605 14.92404833102053
HAWK-10B                
1 60545U 24149CF  26182.94610868  .00001909  00000+0  17277-3 0  9996
2 60545  97.6810 257.9440 0006222  55.1004 305.0802 14.96555945102195
ICEYE-X39               
1 60546U 24149CG  26182.68670511  .00004089  00000+0  33354-3 0  9995
2 60546  97.6768 259.5132 0006661  81.8561 278.3418 14.99986059102298
UMBRA-10                
1 60547U 24149CH  26182.63253443  .00019959  00000+0  96975-3 0  9992
2 60547  97.6985 270.1176 0000721 172.6903 187.4341 15.18479307102927
ICEYE-X33               
1 60548U 24149CJ  26182.16949363  .00005006  00000+0  39827-3 0  9995
2 60548  97.7330 261.2397 0001798  73.8785 286.2637 15.00863132102306
ICEYE-X40               
1 60549U 24149CK  26182.66432827  .00001671  00000+0  14647-3 0  9990
2 60549  97.6801 258.9280 0005180  38.6412 321.5180 14.97984628102246
SATELIOT_1              
1 60550U 24149CL  26182.92137069  .00001714  00000+0  14955-3 0  9991
2 60550  97.6745 258.5757 0007273  33.6106 326.5577 14.98125436102273
BRO-14                  
1 60551U 24149CM  26182.17280226  .00001454  00000+0  13400-3 0  9998
2 60551  97.6875 257.6994 0008045  58.9773 301.2237 14.96213455102088
SATELIOT_3              
1 60552U 24149CN  26182.63015712  .00003195  00000+0  27462-3 0  9993
2 60552  97.6826 259.0918 0006188  53.2402 306.9388 14.98117599102241
BRO-15                  
1 60553U 24149CP  26182.62355408  .00003665  00000+0  32988-3 0  9993
2 60553  97.6799 257.7299 0009005  49.4683 310.7322 14.96204419102165
UM5-RIBAT               
1 60554U 24149CQ  26182.93711251  .00003612  00000+0  28639-3 0  9990
2 60554  97.6622 260.5382 0002283  36.9771 323.1611 15.01158457102409
UM5-EOSAT               
1 60555U 24149CR  26182.09923701  .00004810  00000+0  37481-3 0  9999
2 60555  97.6756 260.6751 0009149  74.1730 286.0503 15.01640699102306
LASARSAT                
1 62391U 24247Q   26182.44264836  .00038073  00000+0  73494-3 0  9996
2 62391  44.9721 182.0574 0006634  62.8619 297.2947 15.47204595 85520
CROCUBE                 
1 62394U 24247T   26182.29360318  .00051030  00000+0  91475-3 0  9991
2 62394  44.9690 179.9931 0006553  67.6168 292.5416 15.49208624 85531
TEVEL2-4                
1 63213U 25052D   26182.65552543  .00022944  00000+0  67406-3 0  9999
2 63213  97.3888  79.0745 0004653  76.7769 283.3993 15.35122895 72335
TEVEL2-5                
1 63214U 25052E   26181.24344693  .00016701  00000+0  49542-3 0  9994
2 63214  97.3890  77.6036 0004701  80.7172 279.4603 15.34882414 72112
TEVEL2-6                
1 63215U 25052F   26182.23399102  .00024838  00000+0  73468-3 0  9994
2 63215  97.3895  78.5803 0004461  79.5368 280.6378 15.34892606 72269
TEVEL2-1                
1 63217U 25052H   26182.65927922  .00021922  00000+0  66005-3 0  9999
2 63217  97.3861  78.6135 0004959  86.0738 274.1071 15.34353658 72312
TEVEL2-3                
1 63218U 25052J   26182.32730917  .00024724  00000+0  74270-3 0  9996
2 63218  97.3865  78.3051 0004784  88.1642 272.0149 15.34403112 72262
TEVEL2-2                
1 63219U 25052K   26182.65950123  .00021924  00000+0  65990-3 0  9994
2 63219  97.3863  78.6161 0004976  87.0260 273.1553 15.34364033 72318
TEVEL2-9                
1 63237U 25052AD  26182.26397641  .00022932  00000+0  73495-3 0  9990
2 63237  97.3927  77.5652 0008265  93.8568 266.3619 15.32333335 72184
TEVEL2-7                
1 63238U 25052AE  26182.69952605  .00019405  00000+0  62828-3 0  9994
2 63238  97.3928  77.9098 0008412  92.7780 267.4424 15.32039741 72249
TEVEL2-8                
1 63239U 25052AF  26182.25070963  .00022297  00000+0  72189-3 0  9999
2 63239  97.3927  77.4382 0008433  94.5817 265.6388 15.32010872 72179
FORESAIL-1 PRIME        
1 66778U 25276DS  26182.68895572  .00005603  00000+0  27225-3 0  9999
2 66778  97.4199 255.6950 0003689  74.0984 286.0656 15.18830309 32607
